{
  "norad_id": 58596,
  "name": "STARLINK-31059",
  "history": [
    {
      "epoch": "2026-04-15T20:18:30.017664Z",
      "apogee_km": 484.0556791463223,
      "perigee_km": 481.9932140154797,
      "latitude_deg": -2.4346240816561756e-06,
      "longitude_deg": 13.658034556035563,
      "height_km": 482.29962285639584,
      "semi_major_axis_km": 6861.161446580901,
      "eccentricity": 0.0001503,
      "inclination_deg": 43.001,
      "raan_deg": 162.2855,
      "arg_perigee_deg": 299.107,
      "mean_anomaly_deg": 60.9631,
      "mean_motion_rev_day": 15.27588232
    },
    {
      "epoch": "2026-04-16T19:50:50.582112Z",
      "apogee_km": 484.03739321190824,
      "perigee_km": 482.0531393005067,
      "latitude_deg": 2.1839360614128523e-05,
      "longitude_deg": 14.067862858428715,
      "height_km": 482.38593515431575,
      "semi_major_axis_km": 6861.182266256207,
      "eccentricity": 0.0001446,
      "inclination_deg": 43.0005,
      "raan_deg": 156.7477,
      "arg_perigee_deg": 296.0735,
      "mean_anomaly_deg": 63.9968,
      "mean_motion_rev_day": 15.27581279
    },
    {
      "epoch": "2026-04-17T19:23:10.622976Z",
      "apogee_km": 483.8799208442897,
      "perigee_km": 482.1786260551253,
      "latitude_deg": -2.1122475355764542e-06,
      "longitude_deg": 14.478826695497316,
      "height_km": 482.4560246724817,
      "semi_major_axis_km": 6861.166273449708,
      "eccentricity": 0.00012398,
      "inclination_deg": 43.0003,
      "raan_deg": 151.2089,
      "arg_perigee_deg": 294.2816,
      "mean_anomaly_deg": 65.7906,
      "mean_motion_rev_day": 15.2758662
    },
    {
      "epoch": "2026-04-18T18:55:31.463040Z",
      "apogee_km": 483.63824380016104,
      "perigee_km": 482.4498872396125,
      "latitude_deg": 1.685755517526893e-05,
      "longitude_deg": 14.885796142020196,
      "height_km": 482.3859679743022,
      "semi_major_axis_km": 6861.181065519887,
      "eccentricity": 8.66e-05,
      "inclination_deg": 43.0,
      "raan_deg": 145.6694,
      "arg_perigee_deg": 316.942,
      "mean_anomaly_deg": 43.1364,
      "mean_motion_rev_day": 15.2758168
    },
    {
      "epoch": "2026-04-19T18:27:52.875072Z",
      "apogee_km": 483.7349679085346,
      "perigee_km": 482.3915448983307,
      "latitude_deg": 1.2999011532911418e-05,
      "longitude_deg": 15.291250333340932,
      "height_km": 482.53179636014124,
      "semi_major_axis_km": 6861.200256403432,
      "eccentricity": 9.79e-05,
      "inclination_deg": 42.9999,
      "raan_deg": 140.1308,
      "arg_perigee_deg": 297.2669,
      "mean_anomaly_deg": 62.8083,
      "mean_motion_rev_day": 15.27575271
    },
    {
      "epoch": "2026-04-20T10:09:27.232704Z",
      "apogee_km": 483.64834526487357,
      "perigee_km": 482.45875204754793,
      "latitude_deg": -3.833605042718283e-05,
      "longitude_deg": 135.56225400010007,
      "height_km": 482.62092630595697,
      "semi_major_axis_km": 6861.19054865621,
      "eccentricity": 8.669e-05,
      "inclination_deg": 43.0009,
      "raan_deg": 136.4395,
      "arg_perigee_deg": 290.5664,
      "mean_anomaly_deg": 69.5094,
      "mean_motion_rev_day": 15.27578513
    },
    {
      "epoch": "2026-04-21T17:32:36.032640Z",
      "apogee_km": 484.06399987540135,
      "perigee_km": 482.4419672832846,
      "latitude_deg": 4.3303682657171665e-05,
      "longitude_deg": 16.1008033791876,
      "height_km": 483.2294659043357,
      "semi_major_axis_km": 6861.389983579343,
      "eccentricity": 0.0001182,
      "inclination_deg": 43.002,
      "raan_deg": 129.0536,
      "arg_perigee_deg": 255.738,
      "mean_anomaly_deg": 104.3341,
      "mean_motion_rev_day": 15.27511912
    },
    {
      "epoch": "2026-04-22T17:04:57.493056Z",
      "apogee_km": 483.69904985166613,
      "perigee_km": 482.54773035820745,
      "latitude_deg": -3.410058005013013e-05,
      "longitude_deg": 16.505275527340302,
      "height_km": 482.3524775516088,
      "semi_major_axis_km": 6861.260390104937,
      "eccentricity": 8.39e-05,
      "inclination_deg": 43.0021,
      "raan_deg": 123.5143,
      "arg_perigee_deg": 341.8129,
      "mean_anomaly_deg": 18.2692,
      "mean_motion_rev_day": 15.27555189
    },
    {
      "epoch": "2026-04-23T00:55:44.359104Z",
      "apogee_km": 484.01027020796846,
      "perigee_km": 482.22250202568193,
      "latitude_deg": -1.1262613404910437e-07,
      "longitude_deg": -103.35730241145997,
      "height_km": 482.75944014738315,
      "semi_major_axis_km": 6861.253386116825,
      "eccentricity": 0.00013028,
      "inclination_deg": 43.0029,
      "raan_deg": 121.6692,
      "arg_perigee_deg": 278.615,
      "mean_anomaly_deg": 81.4554,
      "mean_motion_rev_day": 15.27557528
    },
    {
      "epoch": "2026-04-24T08:18:51.837120Z",
      "apogee_km": 483.8645408051725,
      "perigee_km": 482.2699969330879,
      "latitude_deg": -2.2238703243576158e-05,
      "longitude_deg": 137.18796056303228,
      "height_km": 482.488977809007,
      "semi_major_axis_km": 6861.20426886913,
      "eccentricity": 0.0001162,
      "inclination_deg": 43.002,
      "raan_deg": 114.2846,
      "arg_perigee_deg": 296.4375,
      "mean_anomaly_deg": 63.6357,
      "mean_motion_rev_day": 15.27573931
    },
    {
      "epoch": "2026-04-25T07:51:11.611008Z",
      "apogee_km": 483.9007660405059,
      "perigee_km": 482.1635180137455,
      "latitude_deg": -3.688717303540303e-05,
      "longitude_deg": 137.5962478956087,
      "height_km": 482.81009452828243,
      "semi_major_axis_km": 6861.169142027125,
      "eccentricity": 0.0001266,
      "inclination_deg": 43.0008,
      "raan_deg": 108.742,
      "arg_perigee_deg": 269.9162,
      "mean_anomaly_deg": 90.1544,
      "mean_motion_rev_day": 15.27585662
    },
    {
      "epoch": "2026-04-26T08:57:41.449824Z",
      "apogee_km": 483.8914970828164,
      "perigee_km": 482.14176568374114,
      "latitude_deg": -3.978131105419138e-05,
      "longitude_deg": 114.0335558063552,
      "height_km": 482.82370795929165,
      "semi_major_axis_km": 6861.1536313832785,
      "eccentricity": 0.00012751,
      "inclination_deg": 43.0001,
      "raan_deg": 102.8348,
      "arg_perigee_deg": 268.0041,
      "mean_anomaly_deg": 92.0664,
      "mean_motion_rev_day": 15.27590842
    },
    {
      "epoch": "2026-04-27T06:55:52.657824Z",
      "apogee_km": 483.9147060695659,
      "perigee_km": 482.10336351637943,
      "latitude_deg": -1.1972199542430137e-05,
      "longitude_deg": 138.41431924495473,
      "height_km": 482.6908045720577,
      "semi_major_axis_km": 6861.146034792972,
      "eccentricity": 0.000132,
      "inclination_deg": 43.0012,
      "raan_deg": 97.6645,
      "arg_perigee_deg": 276.0215,
      "mean_anomaly_deg": 84.0486,
      "mean_motion_rev_day": 15.27593379
    },
    {
      "epoch": "2026-04-28T06:28:13.886688Z",
      "apogee_km": 483.7711603573298,
      "perigee_km": 482.32345046888713,
      "latitude_deg": 1.1084250282331477e-05,
      "longitude_deg": 138.82146917269932,
      "height_km": 482.8538752156881,
      "semi_major_axis_km": 6861.184305413108,
      "eccentricity": 0.0001055,
      "inclination_deg": 43.0017,
      "raan_deg": 92.1268,
      "arg_perigee_deg": 267.6264,
      "mean_anomaly_deg": 92.4467,
      "mean_motion_rev_day": 15.27580598
    },
    {
      "epoch": "2026-04-29T09:08:52.970496Z",
      "apogee_km": 483.793648558094,
      "perigee_km": 482.2924223663349,
      "latitude_deg": 2.2546309959480365e-05,
      "longitude_deg": 91.28562585942001,
      "height_km": 482.8788864941099,
      "semi_major_axis_km": 6861.180035462215,
      "eccentricity": 0.0001094,
      "inclination_deg": 43.0023,
      "raan_deg": 85.8494,
      "arg_perigee_deg": 265.479,
      "mean_anomaly_deg": 94.5937,
      "mean_motion_rev_day": 15.27582024
    },
    {
      "epoch": "2026-04-30T05:32:55.700736Z",
      "apogee_km": 484.1084956820523,
      "perigee_km": 482.03229432432454,
      "latitude_deg": -2.5222000446892716e-05,
      "longitude_deg": 139.6345695956988,
      "height_km": 482.8801227249179,
      "semi_major_axis_km": 6861.207395003188,
      "eccentricity": 0.0001513,
      "inclination_deg": 43.0038,
      "raan_deg": 81.0476,
      "arg_perigee_deg": 268.2053,
      "mean_anomaly_deg": 91.8625,
      "mean_motion_rev_day": 15.27572887
    },
    {
      "epoch": "2026-05-02T03:03:28.338048Z",
      "apogee_km": 483.67695407466726,
      "perigee_km": 482.4584041236585,
      "latitude_deg": 3.417602365200974e-05,
      "longitude_deg": 164.42825122283182,
      "height_km": 482.48337022527744,
      "semi_major_axis_km": 6861.204679099163,
      "eccentricity": 8.88e-05,
      "inclination_deg": 43.0007,
      "raan_deg": 70.3462,
      "arg_perigee_deg": 306.2812,
      "mean_anomaly_deg": 53.7958,
      "mean_motion_rev_day": 15.27573794
    },
    {
      "epoch": "2026-05-03T19:51:31.850208Z",
      "apogee_km": 484.30877502902786,
      "perigee_km": 481.8126712973408,
      "latitude_deg": 2.7492229490177255e-05,
      "longitude_deg": -98.87143087041764,
      "height_km": 483.29218775484446,
      "semi_major_axis_km": 6861.197723163184,
      "eccentricity": 0.0001819,
      "inclination_deg": 43.0048,
      "raan_deg": 60.7368,
      "arg_perigee_deg": 248.6655,
      "mean_anomaly_deg": 111.4003,
      "mean_motion_rev_day": 15.27576117
    },
    {
      "epoch": "2026-05-04T19:23:53.092032Z",
      "apogee_km": 483.66866755412684,
      "perigee_km": 482.45149119224607,
      "latitude_deg": 8.059320577601601e-06,
      "longitude_deg": -98.46538458051302,
      "height_km": 483.22779321304097,
      "semi_major_axis_km": 6861.197079373186,
      "eccentricity": 8.87e-05,
      "inclination_deg": 43.0013,
      "raan_deg": 55.1981,
      "arg_perigee_deg": 229.9554,
      "mean_anomaly_deg": 130.122,
      "mean_motion_rev_day": 15.27576332
    }
  ]
}